ONEWEB-0444             
1 51638U 22012S   24038.85244849  .00000266  00000+0  72709-3 0  9992
2 51638  87.8911 207.1802 0001726  97.1097 263.0227 13.10370905 96666
ONEWEB-0446             
1 51640U 22012U   24038.92719641  .00000368  00000+0  10166-2 0  9991
2 51640  87.8916 207.1557 0001256  90.8646 269.2625 13.10370871 96661
ONEWEB-0448             
1 51641U 22012V   24038.85570119  .00000067  00000+0  15450-3 0  9997
2 51641  87.8915 207.1712 0001716  99.2023 260.9299 13.10369603 96629
ONEWEB-0449             
1 51642U 22012W   24038.86057978 -.00000197  00000+0 -60104-3 0  9994
2 51642  87.8909 207.1727 0001492 108.3246 251.8044 13.10369920 96639
ONEWEB-0451             
1 51643U 22012X   24038.92743975 -.00000002  00000+0 -37492-4 0  9991
2 51643  87.9240 176.9418 0001771 107.0840 253.0486 13.17647546100376
ONEWEB-0452             
1 51644U 22012Y   24038.92585863  .00000066  00000+0  13708-3 0  9993
2 51644  87.9246 176.9743 0001757 116.8421 243.2891 13.17647248100382
ONEWEB-0455             
1 51645U 22012Z   24038.85854401  .00000504  00000+0  21665-3 0  9991
2 51645  87.5388 154.6216 0018533  54.4801 305.8115 14.22721854105059
