<?xml version="1.0" encoding="UTF-8"?>
<ndm xmlns:xsi="http://www.w3.org/2001/XMLSchema-instance" xsi:noNamespaceSchemaLocation="https://sanaregistry.org/r/ndmxml_unqualified/ndmxml-2.0.0-master-2.0.xsd">
<omm id="CCSDS_OMM_VERS" version="2.0">
<header><CREATION_DATE/><ORIGINATOR/></header><body><segment><metadata><OBJECT_NAME>ONEWEB-0444</OBJECT_NAME><OBJECT_ID>2022-012S</OBJECT_ID><CENTER_NAME>EARTH</CENTER_NAME><REF_FRAME>TEME</REF_FRAME><TIME_SYSTEM>UTC</TIME_SYSTEM><MEAN_ELEMENT_THEORY>SGP4</MEAN_ELEMENT_THEORY></metadata><data><meanElements><EPOCH>2024-02-07T20:27:31.549536</EPOCH><MEAN_MOTION>13.10370905</MEAN_MOTION><ECCENTRICITY>.0001726</ECCENTRICITY><INCLINATION>87.8911</INCLINATION><RA_OF_ASC_NODE>207.1802</RA_OF_ASC_NODE><ARG_OF_PERICENTER>97.1097</ARG_OF_PERICENTER><MEAN_ANOMALY>263.0227</MEAN_ANOMALY></meanElements><tleParameters><EPHEMERIS_TYPE>0</EPHEMERIS_TYPE><CLASSIFICATION_TYPE>U</CLASSIFICATION_TYPE><NORAD_CAT_ID>51638</NORAD_CAT_ID><ELEMENT_SET_NO>999</ELEMENT_SET_NO><REV_AT_EPOCH>9666</REV_AT_EPOCH><BSTAR>.72709E-3</BSTAR><MEAN_MOTION_DOT>.266E-5</MEAN_MOTION_DOT><MEAN_MOTION_DDOT>0</MEAN_MOTION_DDOT></tleParameters></data></segment></body></omm>
<omm id="CCSDS_OMM_VERS" version="2.0">
<header><CREATION_DATE/><ORIGINATOR/></header><body><segment><metadata><OBJECT_NAME>ONEWEB-0446</OBJECT_NAME><OBJECT_ID>2022-012U</OBJECT_ID><CENTER_NAME>EARTH</CENTER_NAME><REF_FRAME>TEME</REF_FRAME><TIME_SYSTEM>UTC</TIME_SYSTEM><MEAN_ELEMENT_THEORY>SGP4</MEAN_ELEMENT_THEORY></metadata><data><meanElements><EPOCH>2024-02-07T22:15:09.769824</EPOCH><MEAN_MOTION>13.10370871</MEAN_MOTION><ECCENTRICITY>.0001256</ECCENTRICITY><INCLINATION>87.8916</INCLINATION><RA_OF_ASC_NODE>207.1557</RA_OF_ASC_NODE><ARG_OF_PERICENTER>90.8646</ARG_OF_PERICENTER><MEAN_ANOMALY>269.2625</MEAN_ANOMALY></meanElements><tleParameters><EPHEMERIS_TYPE>0</EPHEMERIS_TYPE><CLASSIFICATION_TYPE>U</CLASSIFICATION_TYPE><NORAD_CAT_ID>51640</NORAD_CAT_ID><ELEMENT_SET_NO>999</ELEMENT_SET_NO><REV_AT_EPOCH>9666</REV_AT_EPOCH><BSTAR>.10166E-2</BSTAR><MEAN_MOTION_DOT>.368E-5</MEAN_MOTION_DOT><MEAN_MOTION_DDOT>0</MEAN_MOTION_DDOT></tleParameters></data></segment></body></omm>
<omm id="CCSDS_OMM_VERS" version="2.0">
<header><CREATION_DATE/><ORIGINATOR/></header><body><segment><metadata><OBJECT_NAME>ONEWEB-0448</OBJECT_NAME><OBJECT_ID>2022-012V</OBJECT_ID><CENTER_NAME>EARTH</CENTER_NAME><REF_FRAME>TEME</REF_FRAME><TIME_SYSTEM>UTC</TIME_SYSTEM><MEAN_ELEMENT_THEORY>SGP4</MEAN_ELEMENT_THEORY></metadata><data><meanElements><EPOCH>2024-02-07T20:32:12.582816</EPOCH><MEAN_MOTION>13.10369603</MEAN_MOTION><ECCENTRICITY>.0001716</ECCENTRICITY><INCLINATION>87.8915</INCLINATION><RA_OF_ASC_NODE>207.1712</RA_OF_ASC_NODE><ARG_OF_PERICENTER>99.2023</ARG_OF_PERICENTER><MEAN_ANOMALY>260.9299</MEAN_ANOMALY></meanElements><tleParameters><EPHEMERIS_TYPE>0</EPHEMERIS_TYPE><CLASSIFICATION_TYPE>U</CLASSIFICATION_TYPE><NORAD_CAT_ID>51641</NORAD_CAT_ID><ELEMENT_SET_NO>999</ELEMENT_SET_NO><REV_AT_EPOCH>9662</REV_AT_EPOCH><BSTAR>.1545E-3</BSTAR><MEAN_MOTION_DOT>.67E-6</MEAN_MOTION_DOT><MEAN_MOTION_DDOT>0</MEAN_MOTION_DDOT></tleParameters></data></segment></body></omm>
<omm id="CCSDS_OMM_VERS" version="2.0">
<header><CREATION_DATE/><ORIGINATOR/></header><body><segment><metadata><OBJECT_NAME>ONEWEB-0449</OBJECT_NAME><OBJECT_ID>2022-012W</OBJECT_ID><CENTER_NAME>EARTH</CENTER_NAME><REF_FRAME>TEME</REF_FRAME><TIME_SYSTEM>UTC</TIME_SYSTEM><MEAN_ELEMENT_THEORY>SGP4</MEAN_ELEMENT_THEORY></metadata><data><meanElements><EPOCH>2024-02-07T20:39:14.092992</EPOCH><MEAN_MOTION>13.10369920</MEAN_MOTION><ECCENTRICITY>.0001492</ECCENTRICITY><INCLINATION>87.8909</INCLINATION><RA_OF_ASC_NODE>207.1727</RA_OF_ASC_NODE><ARG_OF_PERICENTER>108.3246</ARG_OF_PERICENTER><MEAN_ANOMALY>251.8044</MEAN_ANOMALY></meanElements><tleParameters><EPHEMERIS_TYPE>0</EPHEMERIS_TYPE><CLASSIFICATION_TYPE>U</CLASSIFICATION_TYPE><NORAD_CAT_ID>51642</NORAD_CAT_ID><ELEMENT_SET_NO>999</ELEMENT_SET_NO><REV_AT_EPOCH>9663</REV_AT_EPOCH><BSTAR>-.60104E-3</BSTAR><MEAN_MOTION_DOT>-.197E-5</MEAN_MOTION_DOT><MEAN_MOTION_DDOT>0</MEAN_MOTION_DDOT></tleParameters></data></segment></body></omm>
<omm id="CCSDS_OMM_VERS" version="2.0">
<header><CREATION_DATE/><ORIGINATOR/></header><body><segment><metadata><OBJECT_NAME>ONEWEB-0451</OBJECT_NAME><OBJECT_ID>2022-012X</OBJECT_ID><CENTER_NAME>EARTH</CENTER_NAME><REF_FRAME>TEME</REF_FRAME><TIME_SYSTEM>UTC</TIME_SYSTEM><MEAN_ELEMENT_THEORY>SGP4</MEAN_ELEMENT_THEORY></metadata><data><meanElements><EPOCH>2024-02-07T22:15:30.794400</EPOCH><MEAN_MOTION>13.17647546</MEAN_MOTION><ECCENTRICITY>.0001771</ECCENTRICITY><INCLINATION>87.9240</INCLINATION><RA_OF_ASC_NODE>176.9418</RA_OF_ASC_NODE><ARG_OF_PERICENTER>107.0840</ARG_OF_PERICENTER><MEAN_ANOMALY>253.0486</MEAN_ANOMALY></meanElements><tleParameters><EPHEMERIS_TYPE>0</EPHEMERIS_TYPE><CLASSIFICATION_TYPE>U</CLASSIFICATION_TYPE><NORAD_CAT_ID>51643</NORAD_CAT_ID><ELEMENT_SET_NO>999</ELEMENT_SET_NO><REV_AT_EPOCH>10037</REV_AT_EPOCH><BSTAR>-.37492E-4</BSTAR><MEAN_MOTION_DOT>-.2E-7</MEAN_MOTION_DOT><MEAN_MOTION_DDOT>0</MEAN_MOTION_DDOT></tleParameters></data></segment></body></omm>
<omm id="CCSDS_OMM_VERS" version="2.0">
<header><CREATION_DATE/><ORIGINATOR/></header><body><segment><metadata><OBJECT_NAME>ONEWEB-0452</OBJECT_NAME><OBJECT_ID>2022-012Y</OBJECT_ID><CENTER_NAME>EARTH</CENTER_NAME><REF_FRAME>TEME</REF_FRAME><TIME_SYSTEM>UTC</TIME_SYSTEM><MEAN_ELEMENT_THEORY>SGP4</MEAN_ELEMENT_THEORY></metadata><data><meanElements><EPOCH>2024-02-07T22:13:14.185632</EPOCH><MEAN_MOTION>13.17647248</MEAN_MOTION><ECCENTRICITY>.0001757</ECCENTRICITY><INCLINATION>87.9246</INCLINATION><RA_OF_ASC_NODE>176.9743</RA_OF_ASC_NODE><ARG_OF_PERICENTER>116.8421</ARG_OF_PERICENTER><MEAN_ANOMALY>243.2891</MEAN_ANOMALY></meanElements><tleParameters><EPHEMERIS_TYPE>0</EPHEMERIS_TYPE><CLASSIFICATION_TYPE>U</CLASSIFICATION_TYPE><NORAD_CAT_ID>51644</NORAD_CAT_ID><ELEMENT_SET_NO>999</ELEMENT_SET_NO><REV_AT_EPOCH>10038</REV_AT_EPOCH><BSTAR>.13708E-3</BSTAR><MEAN_MOTION_DOT>.66E-6</MEAN_MOTION_DOT><MEAN_MOTION_DDOT>0</MEAN_MOTION_DDOT></tleParameters></data></segment></body></omm>
<omm id="CCSDS_OMM_VERS" version="2.0">
<header><CREATION_DATE/><ORIGINATOR/></header><body><segment><metadata><OBJECT_NAME>ONEWEB-0455</OBJECT_NAME><OBJECT_ID>2022-012Z</OBJECT_ID><CENTER_NAME>EARTH</CENTER_NAME><REF_FRAME>TEME</REF_FRAME><TIME_SYSTEM>UTC</TIME_SYSTEM><MEAN_ELEMENT_THEORY>SGP4</MEAN_ELEMENT_THEORY></metadata><data><meanElements><EPOCH>2024-02-07T20:36:18.202464</EPOCH><MEAN_MOTION>14.22721854</MEAN_MOTION><ECCENTRICITY>.0018533</ECCENTRICITY><INCLINATION>87.5388</INCLINATION><RA_OF_ASC_NODE>154.6216</RA_OF_ASC_NODE><ARG_OF_PERICENTER>54.4801</ARG_OF_PERICENTER><MEAN_ANOMALY>305.8115</MEAN_ANOMALY></meanElements><tleParameters><EPHEMERIS_TYPE>0</EPHEMERIS_TYPE><CLASSIFICATION_TYPE>U</CLASSIFICATION_TYPE><NORAD_CAT_ID>51645</NORAD_CAT_ID><ELEMENT_SET_NO>999</ELEMENT_SET_NO><REV_AT_EPOCH>10505</REV_AT_EPOCH><BSTAR>.21665E-3</BSTAR><MEAN_MOTION_DOT>.504E-5</MEAN_MOTION_DOT><MEAN_MOTION_DDOT>0</MEAN_MOTION_DDOT></tleParameters></data></segment></body></omm>

</ndm>
